[{"OBJECT_NAME":"STARLINK-3096","OBJECT_ID":"2021-082B","EPOCH":"2026-03-10T00:00:02.999808","MEAN_MOTION":15.33446833,"ECCENTRICITY":0.00034236,"INCLINATION":69.9998,"RA_OF_ASC_NODE":252.2721,"ARG_OF_PERICENTER":279.9926,"MEAN_ANOMALY":116.5277,"EPHEMERIS_TYPE":0,"CLASSIFICATION_TYPE":"U","NORAD_CAT_ID":49131,"ELEMENT_SET_NO":999,"REV_AT_EPOCH":571,"BSTAR":0.0038781265,"MEAN_MOTION_DOT":0.00127742,"MEAN_MOTION_DDOT":0},{"OBJECT_NAME":"OBJECT L","OBJECT_ID":"2025-155L","EPOCH":"2026-03-09T22:37:59.438784","MEAN_MOTION":15.35424042,"ECCENTRICITY":0.00089978,"INCLINATION":97.4398,"RA_OF_ASC_NODE":38.3429,"ARG_OF_PERICENTER":138.4507,"MEAN_ANOMALY":221.7422,"EPHEMERIS_TYPE":0,"CLASSIFICATION_TYPE":"U","NORAD_CAT_ID":64886,"ELEMENT_SET_NO":999,"REV_AT_EPOCH":6567,"BSTAR":0.0010049858,"MEAN_MOTION_DOT":0.00034663,"MEAN_MOTION_DDOT":0}]
